IRIDIUM 116             
1 43072U 17083C   25294.39734859  .00000256  00000+0  84231-4 0  9999
2 43072  86.3945  61.8093 0001679  93.2654 266.8734 14.34219995409941
IRIDIUM 130             
1 43073U 17083D   25294.85401280  .00000242  00000+0  79297-4 0  9991
2 43073  86.3931  61.8743 0001257  94.7188 265.4152 14.34224944409959
IRIDIUM 151             
1 43074U 17083E   25294.89841547  .00000121  00000+0  36166-4 0  9994
2 43074  86.3972  61.6501 0001781  98.6803 261.4594 14.34215433409986
IRIDIUM 134             
1 43075U 17083F   25294.86669222  .00000513  00000+0  17623-3 0  9991
2 43075  86.3961  61.6704 0001904  85.8229 274.3185 14.34223386409948
IRIDIUM 137             
1 43076U 17083G   25294.87938590  .00000397  00000+0  13468-3 0  9993
2 43076  86.3951  61.7547 0001544 109.2262 250.9101 14.34215909410012
IRIDIUM 141             
1 43077U 17083H   25294.87304629  .00000257  00000+0  84718-4 0  9996
2 43077  86.3963  61.5989 0002275  93.8280 266.3177 14.34215652410013
IRIDIUM 153             
1 43078U 17083J   25294.82522548  .00000133  00000+0  40462-4 0  9995
2 43078  86.4014  30.1016 0002486  92.2373 267.9107 14.34215619411110
IRIDIUM 131             
1 43079U 17083K   25294.86035904  .00000213  00000+0  69149-4 0  9997
2 43079  86.3954  61.7765 0001635  81.5235 278.6146 14.34219866409945
